{
  "type": "FeatureCollection",
  "features": [
    {
      "type": "Feature",
      "properties": {
        "norad_id": 37836,
        "name": "EUTELSAT 16A",
        "group": "eutelsat",
        "lat": -0.038566019983544045,
        "lon": -27.563530646624688,
        "alt_km": 35775.6065668673,
        "timestamp": "2025-12-13T15:35:11.786418+00:00",
        "meta_object_name": "EUTELSAT 16A",
        "meta_object_id": "2011-057A",
        "meta_epoch": "2025-12-12T22:07:04.128384",
        "meta_mean_motion": 1.00272397,
        "meta_eccentricity": 0.00060398,
        "meta_inclination": 0.0597,
        "meta_ra_of_asc_node": 10.5603,
        "meta_arg_of_pericenter": 255.5046,
        "meta_mean_anomaly": 163.5644,
        "meta_ephemeris_type": 0,
        "meta_classification_type": "U",
        "meta_norad_cat_id": 37836,
        "meta_element_set_no": 999,
        "meta_rev_at_epoch": 546,
        "meta_bstar": 0,
        "meta_mean_motion_dot": 1.17e-06,
        "meta_mean_motion_ddot": 0,
        "tle_line1": "1 37836U 11057A   25346.92157556  .00000117  00000+0  00000+0 0  9998",
        "tle_line2": "2 37836   0.0597  10.5603 0006039 255.5046 163.5644  1.00272397  5465"
      },
      "geometry": {
        "type": "Point",
        "coordinates": [
          -27.563530646624688,
          -0.038566019983544045
        ]
      }
    },
    {
      "type": "Feature",
      "properties": {
        "norad_id": 38992,
        "name": "EUTELSAT 21B",
        "group": "eutelsat",
        "lat": -0.03181467079152179,
        "lon": -21.99409289478836,
        "alt_km": 35780.037493296775,
        "timestamp": "2025-12-13T15:35:11.786430+00:00",
        "meta_object_name": "EUTELSAT 21B",
        "meta_object_id": "2012-062B",
        "meta_epoch": "2025-12-12T23:51:19.904832",
        "meta_mean_motion": 1.00272604,
        "meta_eccentricity": 0.0003367,
        "meta_inclination": 0.067,
        "meta_ra_of_asc_node": 6.61,
        "meta_arg_of_pericenter": 265.2516,
        "meta_mean_anomaly": 189.5022,
        "meta_ephemeris_type": 0,
        "meta_classification_type": "U",
        "meta_norad_cat_id": 38992,
        "meta_element_set_no": 999,
        "meta_rev_at_epoch": 4796,
        "meta_bstar": 0,
        "meta_mean_motion_dot": 1.43e-06,
        "meta_mean_motion_ddot": 0,
        "tle_line1": "1 38992U 12062B   25346.99398038  .00000143  00000+0  00000+0 0  9997",
        "tle_line2": "2 38992   0.0670   6.6100 0003367 265.2516 189.5022  1.00272604 47960"
      },
      "geometry": {
        "type": "Point",
        "coordinates": [
          -21.99409289478836,
          -0.03181467079152179
        ]
      }
    },
    {
      "type": "Feature",
      "properties": {
        "norad_id": 39020,
        "name": "EUTELSAT 70B",
        "group": "eutelsat",
        "lat": 0.055914663985041115,
        "lon": 26.910950425678198,
        "alt_km": 35800.31438726431,
        "timestamp": "2025-12-13T15:35:11.786442+00:00",
        "meta_object_name": "EUTELSAT 70B",
        "meta_object_id": "2012-069A",
        "meta_epoch": "2025-12-12T21:23:38.609376",
        "meta_mean_motion": 1.00270793,
        "meta_eccentricity": 0.00043187,
        "meta_inclination": 0.0621,
        "meta_ra_of_asc_node": 345.9407,
        "meta_arg_of_pericenter": 260.9797,
        "meta_mean_anomaly": 226.3338,
        "meta_ephemeris_type": 0,
        "meta_classification_type": "U",
        "meta_norad_cat_id": 39020,
        "meta_element_set_no": 999,
        "meta_rev_at_epoch": 4764,
        "meta_bstar": 0,
        "meta_mean_motion_dot": -3.1e-07,
        "meta_mean_motion_ddot": 0,
        "tle_line1": "1 39020U 12069A   25346.89141909 -.00000031  00000+0  00000+0 0  9996",
        "tle_line2": "2 39020   0.0621 345.9407 0004318 260.9797 226.3338  1.00270793 47640"
      },
      "geometry": {
        "type": "Point",
        "coordinates": [
          26.910950425678198,
          0.055914663985041115
        ]
      }
    },
    {
      "type": "Feature",
      "properties": {
        "norad_id": 39122,
        "name": "EUTELSAT 117 WEST A",
        "group": "eutelsat",
        "lat": -0.010723887033475973,
        "lon": -160.46753580053903,
        "alt_km": 35780.95049802669,
        "timestamp": "2025-12-13T15:35:11.786454+00:00",
        "meta_object_name": "EUTELSAT 117 WEST A",
        "meta_object_id": "2013-012A",
        "meta_epoch": "2025-12-12T23:11:53.682720",
        "meta_mean_motion": 1.00271753,
        "meta_eccentricity": 0.00029089,
        "meta_inclination": 0.0159,
        "meta_ra_of_asc_node": 16.0025,
        "meta_arg_of_pericenter": 249.0463,
        "meta_mean_anomaly": 48.0234,
        "meta_ephemeris_type": 0,
        "meta_classification_type": "U",
        "meta_norad_cat_id": 39122,
        "meta_element_set_no": 999,
        "meta_rev_at_epoch": 4656,
        "meta_bstar": 0,
        "meta_mean_motion_dot": 0,
        "meta_mean_motion_ddot": 0,
        "tle_line1": "1 39122U 13012A   25346.96659355  .00000000  00000+0  00000+0 0  9990",
        "tle_line2": "2 39122   0.0159  16.0025 0002908 249.0463  48.0234  1.00271753 46563"
      },
      "geometry": {
        "type": "Point",
        "coordinates": [
          -160.46753580053903,
          -0.010723887033475973
        ]
      }
    },
    {
      "type": "Feature",
      "properties": {
        "norad_id": 39163,
        "name": "EUTELSAT 7B",
        "group": "eutelsat",
        "lat": -0.0673626450267753,
        "lon": -36.623987023788374,
        "alt_km": 35766.23828747805,
        "timestamp": "2025-12-13T15:35:11.786466+00:00",
        "meta_object_name": "EUTELSAT 7B",
        "meta_object_id": "2013-022A",
        "meta_epoch": "2025-12-12T22:04:26.878656",
        "meta_mean_motion": 1.00273132,
        "meta_eccentricity": 0.00046396,
        "meta_inclination": 0.0741,
        "meta_ra_of_asc_node": 21.8184,
        "meta_arg_of_pericenter": 296.1656,
        "meta_mean_anomaly": 101.9845,
        "meta_ephemeris_type": 0,
        "meta_classification_type": "U",
        "meta_norad_cat_id": 39163,
        "meta_element_set_no": 999,
        "meta_rev_at_epoch": 4608,
        "meta_bstar": 0,
        "meta_mean_motion_dot": 6.1e-07,
        "meta_mean_motion_ddot": 0,
        "tle_line1": "1 39163U 13022A   25346.91975554  .00000061  00000+0  00000+0 0  9990",
        "tle_line2": "2 39163   0.0741  21.8184 0004639 296.1656 101.9845  1.00273132 46082"
      },
      "geometry": {
        "type": "Point",
        "coordinates": [
          -36.623987023788374,
          -0.0673626450267753
        ]
      }
    },
    {
      "type": "Feature",
      "properties": {
        "norad_id": 39612,
        "name": "EXPRESS-AT1",
        "group": "eutelsat",
        "lat": 0.025097760092103894,
        "lon": 12.35554523044437,
        "alt_km": 35786.615453311504,
        "timestamp": "2025-12-13T15:35:11.786485+00:00",
        "meta_object_name": "EXPRESS-AT1",
        "meta_object_id": "2014-010A",
        "meta_epoch": "2025-12-13T00:01:11.460576",
        "meta_mean_motion": 1.00270472,
        "meta_eccentricity": 5.47e-06,
        "meta_inclination": 0.0165,
        "meta_ra_of_asc_node": 323.8593,
        "meta_arg_of_pericenter": 232.3287,
        "meta_mean_anomaly": 302.0376,
        "meta_ephemeris_type": 0,
        "meta_classification_type": "U",
        "meta_norad_cat_id": 39612,
        "meta_element_set_no": 999,
        "meta_rev_at_epoch": 4295,
        "meta_bstar": 0,
        "meta_mean_motion_dot": 0,
        "meta_mean_motion_ddot": 0,
        "tle_line1": "1 39612U 14010A   25347.00082709  .00000000  00000+0  00000+0 0  9992",
        "tle_line2": "2 39612   0.0165 323.8593 0000054 232.3287 302.0376  1.00270472 42958"
      },
      "geometry": {
        "type": "Point",
        "coordinates": [
          12.35554523044437,
          0.025097760092103894
        ]
      }
    },
    {
      "type": "Feature",
      "properties": {
        "norad_id": 39613,
        "name": "EXPRESS-AT2",
        "group": "eutelsat",
        "lat": 0.02373833895556741,
        "lon": 96.22807485083985,
        "alt_km": 35792.43064036504,
        "timestamp": "2025-12-13T15:35:11.786501+00:00",
        "meta_object_name": "EXPRESS-AT2",
        "meta_object_id": "2014-010B",
        "meta_epoch": "2025-12-12T22:42:19.017216",
        "meta_mean_motion": 1.00270323,
        "meta_eccentricity": 0.00014605,
        "meta_inclination": 0.0182,
        "meta_ra_of_asc_node": 310.3146,
        "meta_arg_of_pericenter": 344.0457,
        "meta_mean_anomaly": 267.9614,
        "meta_ephemeris_type": 0,
        "meta_classification_type": "U",
        "meta_norad_cat_id": 39613,
        "meta_element_set_no": 999,
        "meta_rev_at_epoch": 4263,
        "meta_bstar": 0,
        "meta_mean_motion_dot": -2.69e-06,
        "meta_mean_motion_ddot": 0,
        "tle_line1": "1 39613U 14010B   25346.94605344 -.00000269  00000+0  00000+0 0  9999",
        "tle_line2": "2 39613   0.0182 310.3146 0001460 344.0457 267.9614  1.00270323 42639"
      },
      "geometry": {
        "type": "Point",
        "coordinates": [
          96.22807485083985,
          0.02373833895556741
        ]
      }
    }
  ]
}